[{"OBJECT_NAME":"GOES 14","OBJECT_ID":"2009-033A","EPOCH":"2026-04-27T07:09:33.494976","MEAN_MOTION":1.00116791,"ECCENTRICITY":0.00017816,"INCLINATION":1.5607,"RA_OF_ASC_NODE":83.6238,"ARG_OF_PERICENTER":314.8685,"MEAN_ANOMALY":94.4913,"EPHEMERIS_TYPE":0,"CLASSIFICATION_TYPE":"U","NORAD_CAT_ID":35491,"ELEMENT_SET_NO":999,"REV_AT_EPOCH":608,"BSTAR":0,"MEAN_MOTION_DOT":-5.9e-7,"MEAN_MOTION_DDOT":0},{"OBJECT_NAME":"EWS-G2 (GOES 15)","OBJECT_ID":"2010-008A","EPOCH":"2026-04-27T01:59:21.598368","MEAN_MOTION":1.00272555,"ECCENTRICITY":0.00039905,"INCLINATION":1.1431,"RA_OF_ASC_NODE":83.7693,"ARG_OF_PERICENTER":23.6677,"MEAN_ANOMALY":200.7369,"EPHEMERIS_TYPE":0,"CLASSIFICATION_TYPE":"U","NORAD_CAT_ID":36411,"ELEMENT_SET_NO":999,"REV_AT_EPOCH":5912,"BSTAR":0,"MEAN_MOTION_DOT":1.3e-7,"MEAN_MOTION_DDOT":0},{"OBJECT_NAME":"GOES 16","OBJECT_ID":"2016-071A","EPOCH":"2026-04-27T06:40:43.576896","MEAN_MOTION":1.00271264,"ECCENTRICITY":0.00014797,"INCLINATION":0.214,"RA_OF_ASC_NODE":85.2978,"ARG_OF_PERICENTER":251.8277,"MEAN_ANOMALY":233.6094,"EPHEMERIS_TYPE":0,"CLASSIFICATION_TYPE":"U","NORAD_CAT_ID":41866,"ELEMENT_SET_NO":999,"REV_AT_EPOCH":3459,"BSTAR":0,"MEAN_MOTION_DOT":-1.0e-6,"MEAN_MOTION_DDOT":0},{"OBJECT_NAME":"GOES 17","OBJECT_ID":"2018-022A","EPOCH":"2026-04-27T04:51:38.611872","MEAN_MOTION":1.00271983,"ECCENTRICITY":6.598e-5,"INCLINATION":0.8088,"RA_OF_ASC_NODE":86.3949,"ARG_OF_PERICENTER":278.4126,"MEAN_ANOMALY":193.8075,"EPHEMERIS_TYPE":0,"CLASSIFICATION_TYPE":"U","NORAD_CAT_ID":43226,"ELEMENT_SET_NO":999,"REV_AT_EPOCH":2991,"BSTAR":0,"MEAN_MOTION_DOT":-1.92e-6,"MEAN_MOTION_DDOT":0},{"OBJECT_NAME":"GOES 18","OBJECT_ID":"2022-021A","EPOCH":"2026-04-26T23:11:01.917024","MEAN_MOTION":1.00271663,"ECCENTRICITY":6.689e-5,"INCLINATION":0.0104,"RA_OF_ASC_NODE":83.6605,"ARG_OF_PERICENTER":3.3583,"MEAN_ANOMALY":338.7,"EPHEMERIS_TYPE":0,"CLASSIFICATION_TYPE":"U","NORAD_CAT_ID":51850,"ELEMENT_SET_NO":999,"REV_AT_EPOCH":607,"BSTAR":0,"MEAN_MOTION_DOT":0,"MEAN_MOTION_DDOT":0},{"OBJECT_NAME":"GOES 19","OBJECT_ID":"2024-119A","EPOCH":"2026-04-27T04:35:38.533344","MEAN_MOTION":1.00272942,"ECCENTRICITY":5.499e-5,"INCLINATION":0.027,"RA_OF_ASC_NODE":67.875,"ARG_OF_PERICENTER":17.0151,"MEAN_ANOMALY":124.0038,"EPHEMERIS_TYPE":0,"CLASSIFICATION_TYPE":"U","NORAD_CAT_ID":60133,"ELEMENT_SET_NO":999,"REV_AT_EPOCH":645,"BSTAR":0,"MEAN_MOTION_DOT":-2.59e-6,"MEAN_MOTION_DDOT":0}]
