GOES 14                 
1 35491U 09033A   26117.29830434 -.00000059  00000+0  00000+0 0  9990
2 35491   1.5607  83.6238 0001781 314.8685  94.4913  1.00116791  6085
EWS-G2 (GOES 15)        
1 36411U 10008A   26117.08288887  .00000013  00000+0  00000+0 0  9992
2 36411   1.1431  83.7693 0003990  23.6677 200.7369  1.00272555 59126
GOES 16                 
1 41866U 16071A   26117.27828214 -.00000100  00000+0  00000+0 0  9991
2 41866   0.2140  85.2978 0001479 251.8277 233.6094  1.00271264 34597
GOES 17                 
1 43226U 18022A   26117.20253023 -.00000192  00000+0  00000+0 0  9995
2 43226   0.8088  86.3949 0000659 278.4126 193.8075  1.00271983 29917
GOES 18                 
1 51850U 22021A   26116.96599441  .00000000  00000+0  00000+0 0  9997
2 51850   0.0104  83.6605 0000668   3.3583 338.7000  1.00271663  6076
GOES 19                 
1 60133U 24119A   26117.19141821 -.00000259  00000+0  00000+0 0  9999
2 60133   0.0270  67.8750 0000549  17.0151 124.0038  1.00272942  6450
